[
  {
    "CCSDS_OMM_VERS": "3.0",
    "COMMENT": "GENERATED VIA SPACE-TRACK.ORG API",
    "CREATION_DATE": "2025-11-26T14:36:23",
    "ORIGINATOR": "18 SPCS",
    "OBJECT_NAME": "IRIDIUM 33 DEB",
    "OBJECT_ID": "1997-051GH",
    "CENTER_NAME": "EARTH",
    "REF_FRAME": "TEME",
    "TIME_SYSTEM": "UTC",
    "MEAN_ELEMENT_THEORY": "SGP4",
    "EPOCH": "2025-11-26T11:58:56.775936",
    "MEAN_MOTION": "14.24985942",
    "ECCENTRICITY": "0.01907200",
    "INCLINATION": "86.4703",
    "RA_OF_ASC_NODE": "341.1876",
    "ARG_OF_PERICENTER": "290.8151",
    "MEAN_ANOMALY": "224.9852",
    "EPHEMERIS_TYPE": "0",
    "CLASSIFICATION_TYPE": "U",
    "NORAD_CAT_ID": "34492",
    "ELEMENT_SET_NO": "999",
    "REV_AT_EPOCH": "84827",
    "BSTAR": "0.00622580000000",
    "MEAN_MOTION_DOT": "0.00017653",
    "MEAN_MOTION_DDOT": "0.0000000000000",
    "SEMIMAJOR_AXIS": "7186.677",
    "PERIOD": "101.054",
    "APOAPSIS": "945.606",
    "PERIAPSIS": "671.478",
    "OBJECT_TYPE": "DEBRIS",
    "RCS_SIZE": "SMALL",
    "COUNTRY_CODE": "US",
    "LAUNCH_DATE": "1997-09-14",
    "SITE": "TTMTR",
    "DECAY_DATE": null,
    "FILE": "4902611",
    "GP_ID": "303622672",
    "TLE_LINE0": "0 IRIDIUM 33 DEB",
    "TLE_LINE1": "1 34492U 97051GH  25330.49926824  .00017653  00000-0  62258-2 0  9998",
    "TLE_LINE2": "2 34492  86.4703 341.1876 0190720 290.8151 224.9852 14.24985942848276"
  },
  {
    "CCSDS_OMM_VERS": "3.0",
    "COMMENT": "GENERATED VIA SPACE-TRACK.ORG API",
    "CREATION_DATE": "2023-04-14T18:03:58",
    "ORIGINATOR": "18 SPCS",
    "OBJECT_NAME": "IRIDIUM 33 DEB",
    "OBJECT_ID": "1997-051GJ",
    "CENTER_NAME": "EARTH",
    "REF_FRAME": "TEME",
    "TIME_SYSTEM": "UTC",
    "MEAN_ELEMENT_THEORY": "SGP4",
    "EPOCH": "2023-04-13T20:32:39.059232",
    "MEAN_MOTION": "15.44903593",
    "ECCENTRICITY": "0.00088480",
    "INCLINATION": "86.2319",
    "RA_OF_ASC_NODE": "334.2723",
    "ARG_OF_PERICENTER": "258.2210",
    "MEAN_ANOMALY": "101.8054",
    "EPHEMERIS_TYPE": "0",
    "CLASSIFICATION_TYPE": "U",
    "NORAD_CAT_ID": "34493",
    "ELEMENT_SET_NO": "999",
    "REV_AT_EPOCH": "74884",
    "BSTAR": "0.01750000000000",
    "MEAN_MOTION_DOT": "0.00891959",
    "MEAN_MOTION_DDOT": "0.0000000000000",
    "SEMIMAJOR_AXIS": "6809.798",
    "PERIOD": "93.210",
    "APOAPSIS": "437.689",
    "PERIAPSIS": "425.638",
    "OBJECT_TYPE": "DEBRIS",
    "RCS_SIZE": "SMALL",
    "COUNTRY_CODE": "US",
    "LAUNCH_DATE": "1997-09-14",
    "SITE": "TTMTR",
    "DECAY_DATE": "2023-04-27",
    "FILE": "3887333",
    "GP_ID": "230047524",
    "TLE_LINE0": "0 IRIDIUM 33 DEB",
    "TLE_LINE1": "1 34493U 97051GJ  23103.85600763  .00891959  00000-0  17500-1 0  9994",
    "TLE_LINE2": "2 34493  86.2319 334.2723 0008848 258.2210 101.8054 15.44903593748849"
  },
  {
    "CCSDS_OMM_VERS": "3.0",
    "COMMENT": "GENERATED VIA SPACE-TRACK.ORG API",
    "CREATION_DATE": "2013-01-17T10:09:55",
    "ORIGINATOR": "18 SPCS",
    "OBJECT_NAME": "IRIDIUM 33 DEB",
    "OBJECT_ID": "1997-051GK",
    "CENTER_NAME": "EARTH",
    "REF_FRAME": "TEME",
    "TIME_SYSTEM": "UTC",
    "MEAN_ELEMENT_THEORY": "SGP4",
    "EPOCH": "2013-01-15T12:19:30.342431",
    "MEAN_MOTION": "15.60691598",
    "ECCENTRICITY": "0.00255110",
    "INCLINATION": "86.1606",
    "RA_OF_ASC_NODE": "196.6097",
    "ARG_OF_PERICENTER": "333.7130",
    "MEAN_ANOMALY": "26.2874",
    "EPHEMERIS_TYPE": "0",
    "CLASSIFICATION_TYPE": "U",
    "NORAD_CAT_ID": "34494",
    "ELEMENT_SET_NO": "999",
    "REV_AT_EPOCH": "20552",
    "BSTAR": "0.07147100000000",
    "MEAN_MOTION_DOT": "0.07317560",
    "MEAN_MOTION_DDOT": "0.0000000000000",
    "SEMIMAJOR_AXIS": "6763.799",
    "PERIOD": "92.266",
    "APOAPSIS": "402.919",
    "PERIAPSIS": "368.409",
    "OBJECT_TYPE": "DEBRIS",
    "RCS_SIZE": "SMALL",
    "COUNTRY_CODE": "US",
    "LAUNCH_DATE": "1997-09-14",
    "SITE": "TTMTR",
    "DECAY_DATE": "2013-01-18",
    "FILE": "1423312",
    "GP_ID": "91934868",
    "TLE_LINE0": "0 IRIDIUM 33 DEB",
    "TLE_LINE1": "1 34494U 97051GK  13015.51354563  .07317560  00000-0  71471-1 0  9998",
    "TLE_LINE2": "2 34494 086.1606 196.6097 0025511 333.7130 026.2874 15.60691598205528"
  },
  {
    "CCSDS_OMM_VERS": "3.0",
    "COMMENT": "GENERATED VIA SPACE-TRACK.ORG API",
    "CREATION_DATE": "2012-12-21T17:55:19",
    "ORIGINATOR": "18 SPCS",
    "OBJECT_NAME": "IRIDIUM 33 DEB",
    "OBJECT_ID": "1997-051GL",
    "CENTER_NAME": "EARTH",
    "REF_FRAME": "TEME",
    "TIME_SYSTEM": "UTC",
    "MEAN_ELEMENT_THEORY": "SGP4",
    "EPOCH": "2012-12-11T04:07:12.332928",
    "MEAN_MOTION": "15.93776702",
    "ECCENTRICITY": "0.00179830",
    "INCLINATION": "86.4392",
    "RA_OF_ASC_NODE": "231.4657",
    "ARG_OF_PERICENTER": "93.2609",
    "MEAN_ANOMALY": "279.4910",
    "EPHEMERIS_TYPE": "0",
    "CLASSIFICATION_TYPE": "U",
    "NORAD_CAT_ID": "34495",
    "ELEMENT_SET_NO": "999",
    "REV_AT_EPOCH": "20560",
    "BSTAR": "0.01775900000000",
    "MEAN_MOTION_DOT": "0.04922554",
    "MEAN_MOTION_DDOT": "0.0404660000000",
    "SEMIMAJOR_AXIS": "6669.866",
    "PERIOD": "90.351",
    "APOAPSIS": "303.725",
    "PERIAPSIS": "279.737",
    "OBJECT_TYPE": "DEBRIS",
    "RCS_SIZE": "SMALL",
    "COUNTRY_CODE": "US",
    "LAUNCH_DATE": "1997-09-14",
    "SITE": "TTMTR",
    "DECAY_DATE": "2012-12-11",
    "FILE": "1408551",
    "GP_ID": "91720407",
    "TLE_LINE0": "0 IRIDIUM 33 DEB",
    "TLE_LINE1": "1 34495U 97051GL  12346.17167052  .04922554  40466-1  17759-1 0  9994",
    "TLE_LINE2": "2 34495 086.4392 231.4657 0017983 093.2609 279.4910 15.93776702205606"
  },
  {
    "CCSDS_OMM_VERS": "3.0",
    "COMMENT": "GENERATED VIA SPACE-TRACK.ORG API",
    "CREATION_DATE": "2023-02-24T17:50:44",
    "ORIGINATOR": "18 SPCS",
    "OBJECT_NAME": "IRIDIUM 33 DEB",
    "OBJECT_ID": "1997-051GM",
    "CENTER_NAME": "EARTH",
    "REF_FRAME": "TEME",
    "TIME_SYSTEM": "UTC",
    "MEAN_ELEMENT_THEORY": "SGP4",
    "EPOCH": "2023-02-05T15:43:12.374976",
    "MEAN_MOTION": "14.66567181",
    "ECCENTRICITY": "0.00668930",
    "INCLINATION": "86.3746",
    "RA_OF_ASC_NODE": "168.2833",
    "ARG_OF_PERICENTER": "177.4288",
    "MEAN_ANOMALY": "182.7284",
    "EPHEMERIS_TYPE": "0",
    "CLASSIFICATION_TYPE": "U",
    "NORAD_CAT_ID": "34496",
    "ELEMENT_SET_NO": "999",
    "REV_AT_EPOCH": "55603",
    "BSTAR": "0.01712600000000",
    "MEAN_MOTION_DOT": "0.00099530",
    "MEAN_MOTION_DDOT": "0.0000000000000",
    "SEMIMAJOR_AXIS": "7050.185",
    "PERIOD": "98.188",
    "APOAPSIS": "719.211",
    "PERIAPSIS": "624.890",
    "OBJECT_TYPE": "DEBRIS",
    "RCS_SIZE": "SMALL",
    "COUNTRY_CODE": "US",
    "LAUNCH_DATE": "1997-09-14",
    "SITE": "TTMTR",
    "DECAY_DATE": "2023-09-08",
    "FILE": "3832867",
    "GP_ID": "226695563",
    "TLE_LINE0": "0 IRIDIUM 33 DEB",
    "TLE_LINE1": "1 34496U 97051GM  23036.65500434  .00099530  00000-0  17126-1 0  9993",
    "TLE_LINE2": "2 34496  86.3746 168.2833 0066893 177.4288 182.7284 14.66567181556038"
  },
  {
    "CCSDS_OMM_VERS": "3.0",
    "COMMENT": "GENERATED VIA SPACE-TRACK.ORG API",
    "CREATION_DATE": "2025-11-26T14:36:23",
    "ORIGINATOR": "18 SPCS",
    "OBJECT_NAME": "IRIDIUM 33 DEB",
    "OBJECT_ID": "1997-051GN",
    "CENTER_NAME": "EARTH",
    "REF_FRAME": "TEME",
    "TIME_SYSTEM": "UTC",
    "MEAN_ELEMENT_THEORY": "SGP4",
    "EPOCH": "2025-11-26T12:39:19.253088",
    "MEAN_MOTION": "14.27382283",
    "ECCENTRICITY": "0.00805580",
    "INCLINATION": "86.2781",
    "RA_OF_ASC_NODE": "59.3254",
    "ARG_OF_PERICENTER": "31.9858",
    "MEAN_ANOMALY": "25.8614",
    "EPHEMERIS_TYPE": "0",
    "CLASSIFICATION_TYPE": "U",
    "NORAD_CAT_ID": "34497",
    "ELEMENT_SET_NO": "999",
    "REV_AT_EPOCH": "86652",
    "BSTAR": "0.00073089000000",
    "MEAN_MOTION_DOT": "0.00001872",
    "MEAN_MOTION_DDOT": "0.0000000000000",
    "SEMIMAJOR_AXIS": "7178.631",
    "PERIOD": "100.884",
    "APOAPSIS": "858.326",
    "PERIAPSIS": "742.667",
    "OBJECT_TYPE": "DEBRIS",
    "RCS_SIZE": "SMALL",
    "COUNTRY_CODE": "US",
    "LAUNCH_DATE": "1997-09-14",
    "SITE": "TTMTR",
    "DECAY_DATE": null,
    "FILE": "4902612",
    "GP_ID": "303623176",
    "TLE_LINE0": "0 IRIDIUM 33 DEB",
    "TLE_LINE1": "1 34497U 97051GN  25330.52730617  .00001872  00000-0  73089-3 0  9991",
    "TLE_LINE2": "2 34497  86.2781  59.3254 0080558  31.9858  25.8614 14.27382283866522"
  },
  {
    "CCSDS_OMM_VERS": "3.0",
    "COMMENT": "GENERATED VIA SPACE-TRACK.ORG API",
    "CREATION_DATE": "2011-11-05T09:07:48",
    "ORIGINATOR": "18 SPCS",
    "OBJECT_NAME": "IRIDIUM 33 DEB",
    "OBJECT_ID": "1997-051GP",
    "CENTER_NAME": "EARTH",
    "REF_FRAME": "TEME",
    "TIME_SYSTEM": "UTC",
    "MEAN_ELEMENT_THEORY": "SGP4",
    "EPOCH": "2011-10-27T22:32:47.006880",
    "MEAN_MOTION": "14.75852735",
    "ECCENTRICITY": "0.00673120",
    "INCLINATION": "86.5400",
    "RA_OF_ASC_NODE": "99.6799",
    "ARG_OF_PERICENTER": "351.9718",
    "MEAN_ANOMALY": "29.9457",
    "EPHEMERIS_TYPE": "0",
    "CLASSIFICATION_TYPE": "U",
    "NORAD_CAT_ID": "34498",
    "ELEMENT_SET_NO": "999",
    "REV_AT_EPOCH": "13528",
    "BSTAR": "0.11763000000000",
    "MEAN_MOTION_DOT": "0.00891864",
    "MEAN_MOTION_DDOT": "0.0000000000000",
    "SEMIMAJOR_AXIS": "7020.587",
    "PERIOD": "97.570",
    "APOAPSIS": "689.709",
    "PERIAPSIS": "595.195",
    "OBJECT_TYPE": "DEBRIS",
    "RCS_SIZE": "SMALL",
    "COUNTRY_CODE": "US",
    "LAUNCH_DATE": "1997-09-14",
    "SITE": "TTMTR",
    "DECAY_DATE": "2011-11-25",
    "FILE": "1183199",
    "GP_ID": "85752851",
    "TLE_LINE0": "0 IRIDIUM 33 DEB",
    "TLE_LINE1": "1 34498U 97051GP  11300.93943295 +.00891864 +00000-0 +11763-0 0  9993",
    "TLE_LINE2": "2 34498 086.5400 099.6799 0067312 351.9718 029.9457 14.75852735135287"
  }
]